{
  "type": "FeatureCollection",
  "name": "center_1st_footprint",
  "crs": {
    "type": "name",
    "properties": {
      "name": "urn:ogc:def:crs:OGC:1.3:CRS84"
    }
  },
  "features": [
    {
      "type": "Feature",
      "properties": {
        "catalog_id": "10400100786D3E00",
        "acq_date": "2022-06-01",
        "sensor": "WV03",
        "off_nadir": 10.34,
        "sun_elev": 71.07,
        "native_res": 0.32,
        "accuracy": 8.5,
        "proc_notes": null,
        "id": "8",
        "cities": null,
        "countries": "קפריסין",
        "sourceId": "10400100786D3E00",
        "sourceName": "Cyprus_Strips",
        "updateDate": "2022-06-01",
        "sourceRes": "0.32",
        "ep90": "8.5",
        "sensors": "WV03",
        "scale": null,
        "publishRes": "0.6",
        "classify": "בלמ\"ס",
        "layer": "Cyprus_Strips",
        "path": "D:/shape/vivid/vivid_all/Cyprus/SHP_Strips/Cyprus_Strips.shp",
        "area": 9251
      },
      "geometry": {
        "type": "Polygon",
        "coordinates": [
          [
            [
              33.014574497938156,
              34.761245101690292
            ],
            [
              32.999869287014008,
              34.760133326053619
            ],
            [
              32.9864501953125,
              34.759170413017273
            ],
            [
              32.985076904296875,
              34.758191406726837
            ],
            [
              32.984808683395386,
              34.751129150390625
            ],
            [
              32.985730022192001,
              34.739379733800888
            ],
            [
              32.985208332538605,
              34.73876953125
            ],
            [
              32.985901683568954,
              34.737944751977921
            ],
            [
              32.985232472419739,
              34.737396240234375
            ],
            [
              32.985197603702545,
              34.73052978515625
            ],
            [
              32.985511422157288,
              34.720916748046875
            ],
            [
              32.986067980527878,
              34.72035750746727
            ],
            [
              32.98533171415329,
              34.71954345703125
            ],
            [
              32.985227108001709,
              34.716796875
            ],
            [
              32.985405474901199,
              34.713858515024185
            ],
            [
              32.987339347600937,
              34.70974937081337
            ],
            [
              32.986585646867752,
              34.699296802282333
            ],
            [
              32.987473458051682,
              34.693130403757095
            ],
            [
              32.988683134317398,
              34.690686911344528
            ],
            [
              32.986456900835037,
              34.680532068014145
            ],
            [
              32.985833287239075,
              34.6728515625
            ],
            [
              32.986532002687454,
              34.672482758760452
            ],
            [
              32.986660748720169,
              34.668505042791367
            ],
            [
              32.988709956407547,
              34.663033336400986
            ],
            [
              32.98862412571907,
              34.660458415746689
            ],
            [
              32.990163713693619,
              34.658811539411545
            ],
            [
              32.989200800657272,
              34.650220423936844
            ],
            [
              32.989726513624191,
              34.647337049245834
            ],
            [
              32.988897711038589,
              34.643783122301102
            ],
            [
              32.989090830087662,
              34.631485193967819
            ],
            [
              32.98595130443573,
              34.62890625
            ],
            [
              32.986432760953903,
              34.627767652273178
            ],
            [
              32.987824827432632,
              34.62746724486351
            ],
            [
              32.988331764936447,
              34.626075178384781
            ],
            [
              32.989206165075302,
              34.626008123159409
            ],
            [
              32.991131991147995,
              34.622717052698135
            ],
            [
              32.991528958082199,
              34.616038352251053
            ],
            [
              32.993457466363907,
              34.613919407129288
            ],
            [
              32.993827611207962,
              34.612138420343399
            ],
            [
              32.99587145447731,
              34.610818773508072
            ],
            [
              32.996367663145065,
              34.602984040975571
            ],
            [
              32.998019903898239,
              34.601200371980667
            ],
            [
              32.99981564283371,
              34.601099789142609
            ],
            [
              32.999393194913864,
              34.592630714178085
            ],
            [
              32.99848660826683,
              34.592451006174088
            ],
            [
              32.997928708791733,
              34.589001685380936
            ],
            [
              32.999791502952576,
              34.5849609375
            ],
            [
              32.999084740877151,
              34.582491964101791
            ],
            [
              32.999513894319534,
              34.577108770608902
            ],
            [
              32.998934537172318,
              34.570523947477341
            ],
            [
              32.99749419093132,
              34.569644182920456
            ],
            [
              32.997309118509293,
              34.568573981523514
            ],
            [
              32.999756634235382,
              34.541015625
            ],
            [
              32.87109375,
              34.541015625
            ],
            [
              32.87109375,
              34.62890625
            ],
            [
              32.863414585590363,
              34.62890625
            ],
            [
              32.738359272480011,
              34.62890625
            ],
            [
              32.736432105302811,
              34.644172042608261
            ],
            [
              32.736973911523819,
              34.64907243847847
            ],
            [
              32.735466510057449,
              34.650528877973557
            ],
            [
              32.735901027917862,
              34.650928527116776
            ],
            [
              32.734055668115616,
              34.65644583106041
            ],
            [
              32.734592109918594,
              34.663218408823013
            ],
            [
              32.73670569062233,
              34.666520208120346
            ],
            [
              32.738365978002548,
              34.671208709478378
            ],
            [
              32.738274782896042,
              34.675146192312241
            ],
            [
              32.737641781568527,
              34.67664822936058
            ],
            [
              32.736547440290451,
              34.677045196294785
            ],
            [
              32.734396308660507,
              34.682527631521225
            ],
            [
              32.734817415475845,
              34.68777135014534
            ],
            [
              32.733425348997116,
              34.691679328680038
            ],
            [
              32.730292528867722,
              34.693977981805801
            ],
            [
              32.728699296712875,
              34.697488993406296
            ],
            [
              32.728731483221054,
              34.701973646879196
            ],
            [
              32.727626413106918,
              34.703177958726883
            ],
            [
              32.727385014295578,
              34.704929441213608
            ],
            [
              32.729072123765945,
              34.711203128099442
            ],
            [
              32.731019407510757,
              34.712439626455307
            ],
            [
              32.73195818066597,
              34.714550524950027
            ],
            [
              32.738847434520721,
              34.716796875
            ],
            [
              32.737133502960205,
              34.723663330078125
            ],
            [
              32.738269418478012,
              34.72784623503685
            ],
            [
              32.737770527601242,
              34.730836898088455
            ],
            [
              32.739020437002182,
              34.732797592878342
            ],
            [
              32.738502770662308,
              34.736263006925583
            ],
            [
              32.739316821098328,
              34.753875732421875
            ],
            [
              32.739028483629227,
              34.757908433675766
            ],
            [
              32.738290876150131,
              34.758847206830978
            ],
            [
              32.73926317691803,
              34.762115478515625
            ],
            [
              32.739496529102325,
              34.8046875
            ],
            [
              32.737069129943848,
              34.8046875
            ],
            [
              32.735664993524551,
              34.804160445928574
            ],
            [
              32.730803489685059,
              34.8046875
            ],
            [
              32.724926769733429,
              34.8046875
            ],
            [
              32.725241929292679,
              34.811203926801682
            ],
            [
              32.724101990461349,
              34.816206246614456
            ],
            [
              32.725199013948441,
              34.81748029589653
            ],
            [
              32.724552601575851,
              34.82047900557518
            ],
            [
              32.725308984518051,
              34.827369600534439
            ],
            [
              32.726294696331024,
              34.829720556735992
            ],
            [
              32.730590254068375,
              34.831290990114212
            ],
            [
              32.736745923757553,
              34.830770641565323
            ],
            [
              32.7392578125,
              34.829835891723633
            ],
            [
              32.739586383104324,
              34.830521196126938
            ],
            [
              32.740404456853867,
              34.844913929700851
            ],
            [
              32.741767019033432,
              34.846096783876419
            ],
            [
              32.741923928260803,
              34.8486328125
            ],
            [
              32.741525620222092,
              34.850527793169022
            ],
            [
              32.74045005440712,
              34.851418286561966
            ],
            [
              32.740004807710648,
              34.854797869920731
            ],
            [
              32.740825563669205,
              34.856876581907272
            ],
            [
              32.739626616239548,
              34.861216396093369
            ],
            [
              32.740138918161392,
              34.863987118005753
            ],
            [
              32.739959210157394,
              34.866859763860703
            ],
            [
              32.739285975694656,
              34.86718162894249
            ],
            [
              32.739953845739365,
              34.871561676263809
            ],
            [
              32.739366441965103,
              34.877939969301224
            ],
            [
              32.741104513406754,
              34.881142526865005
            ],
            [
              32.74018719792366,
              34.887464493513107
            ],
            [
              32.741007953882217,
              34.891721159219742
            ],
            [
              32.74200439453125,
              34.892578125
            ],
            [
              32.741131335496902,
              34.9016372859478
            ],
            [
              32.741852849721909,
              34.905094653367996
            ],
            [
              32.741404920816422,
              34.908050447702408
            ],
            [
              32.739910930395126,
              34.91037055850029
            ],
            [
              32.739487141370773,
              34.915026873350143
            ],
            [
              32.740235477685928,
              34.91847351193428
            ],
            [
              32.740004807710648,
              34.925058335065842
            ],
            [
              32.741332501173019,
              34.926699846982956
            ],
            [
              32.740981131792068,
              34.931889921426773
            ],
            [
              32.741722762584686,
              34.9365234375
            ],
            [
              32.740659266710281,
              34.937485009431839
            ],
            [
              32.739535421133041,
              34.943391233682632
            ],
            [
              32.7413110435009,
              34.951593428850174
            ],
            [
              32.740171104669571,
              34.96205672621727
            ],
            [
              32.739422768354416,
              34.96342733502388
            ],
            [
              32.741628885269165,
              34.98046875
            ],
            [
              32.741276174783707,
              34.988170713186264
            ],
            [
              32.73995652794838,
              34.991418868303299
            ],
            [
              32.741016000509262,
              34.994374662637711
            ],
            [
              32.740919440984726,
              34.998829811811447
            ],
            [
              32.739886790513992,
              35.004419535398483
            ],
            [
              32.740238159894943,
              35.008751302957535
            ],
            [
              32.739285975694656,
              35.017192214727402
            ],
            [
              32.740157693624496,
              35.022363513708115
            ],
            [
              32.741875648498535,
              35.0244140625
            ],
            [
              32.740243524312973,
              35.026292949914932
            ],
            [
              32.739564925432205,
              35.029879063367844
            ],
            [
              32.740911394357681,
              35.037013739347458
            ],
            [
              32.739543467760086,
              35.051387697458267
            ],
            [
              32.741458564996719,
              35.062014609575272
            ],
            [
              32.740924805402756,
              35.067175179719925
            ],
            [
              32.742151916027069,
              35.068359375
            ],
            [
              32.740830928087234,
              35.071195811033249
            ],
            [
              32.739393264055252,
              35.079899579286575
            ],
            [
              32.740353494882584,
              35.083912163972855
            ],
            [
              32.739535421133041,
              35.085540264844894
            ],
            [
              32.740541249513626,
              35.088187605142593
            ],
            [
              32.739914953708649,
              35.096476972103119
            ],
            [
              32.73931011557579,
              35.097738951444626
            ],
            [
              32.73994043469429,
              35.1051364839077
            ],
            [
              32.73931011557579,
              35.107848197221756
            ],
            [
              32.739857286214828,
              35.11024072766304
            ],
            [
              32.739568948745728,
              35.15625
            ],
            [
              32.739464342594147,
              35.201252102851868
            ],
            [
              32.740703523159027,
              35.201257467269897
            ],
            [
              32.740963697433472,
              35.201268196105957
            ],
            [
              32.741974890232086,
              35.201270878314972
            ],
            [
              32.742878794670105,
              35.201286971569061
            ],
            [
              32.74376392364502,
              35.201286971569061
            ],
            [
              32.744026780128479,
              35.201297700405121
            ],
            [
              32.745046019554138,
              35.201300382614136
            ],
            [
              32.745955288410187,
              35.201316475868225
            ],
            [
              32.746810913085938,
              35.201316475868225
            ],
            [
              32.747087180614471,
              35.201327204704285
            ],
            [
              32.748154699802399,
              35.2013298869133
            ],
            [
              32.749077379703522,
              35.201345980167389
            ],
            [
              32.74987131357193,
              35.201345980167389
            ],
            [
              32.750150263309479,
              35.201356709003448
            ],
            [
              32.751303613185883,
              35.201359391212463
            ],
            [
              32.751394808292389,
              35.201367437839508
            ],
            [
              32.752918303012848,
              35.201375484466553
            ],
            [
              32.753266990184784,
              35.201386213302612
            ],
            [
              32.754428386688232,
              35.201388895511627
            ],
            [
              32.754428386688232,
              35.201396942138672
            ],
            [
              32.75747537612915,
              35.201418399810791
            ],
            [
              32.757531702518463,
              35.201426446437836
            ],
            [
              32.760508954524994,
              35.201447904109955
            ],
            [
              32.760820090770721,
              35.201458632946014
            ],
            [
              32.761968076229095,
              35.201461315155029
            ],
            [
              32.762035131454468,
              35.201469361782074
            ],
            [
              32.763558626174927,
              35.201477408409119
            ],
            [
              32.764242589473724,
              35.201490819454193
            ],
            [
              32.765068709850311,
              35.201490819454193
            ],
            [
              32.765103578567505,
              35.201498866081238
            ],
            [
              32.768102288246155,
              35.201520323753357
            ],
            [
              32.768418788909912,
              35.201531052589417
            ],
            [
              32.769609689712524,
              35.201533734798431
            ],
            [
              32.769609689712524,
              35.201541781425476
            ],
            [
              32.772643268108368,
              35.201563239097595
            ],
            [
              32.77296781539917,
              35.201573967933655
            ],
            [
              32.774153351783752,
              35.20157665014267
            ],
            [
              32.774153351783752,
              35.201584696769714
            ],
            [
              32.777186930179596,
              35.201606154441833
            ],
            [
              32.777514159679413,
              35.201616883277893
            ],
            [
              32.778694331645966,
              35.201619565486908
            ],
            [
              32.778694331645966,
              35.201627612113953
            ],
            [
              32.781714498996735,
              35.201649069786072
            ],
            [
              32.782057821750641,
              35.201659798622131
            ],
            [
              32.783224582672119,
              35.201662480831146
            ],
            [
              32.783224582672119,
              35.201670527458191
            ],
            [
              32.789227366447449,
              35.201718807220459
            ],
            [
              32.789246141910553,
              35.201726853847504
            ],
            [
              32.791491150856018,
              35.201748311519623
            ],
            [
              32.795251607894897,
              35.201775133609772
            ],
            [
              32.795259654521942,
              35.201783180236816
            ],
            [
              32.799763083457947,
              35.20181804895401
            ],
            [
              32.800149321556091,
              35.20182877779007
            ],
            [
              32.801275849342346,
              35.201831459999084
            ],
            [
              32.801275849342346,
              35.201839506626129
            ],
            [
              32.802625000476837,
              35.201844871044159
            ],
            [
              32.805033624172211,
              35.201874375343323
            ],
            [
              32.816266715526581,
              35.201970934867859
            ],
            [
              32.816652953624725,
              35.201981663703918
            ],
            [
              32.819265425205231,
              35.201997756958008
            ],
            [
              32.819289565086365,
              35.202005803585052
            ],
            [
              32.820762097835541,
              35.202011168003082
            ],
            [
              32.820762097835541,
              35.202019214630127
            ],
            [
              32.822132706642151,
              35.202024579048157
            ],
            [
              32.822258770465851,
              35.202032625675201
            ],
            [
              32.827481031417847,
              35.202080905437469
            ],
            [
              32.853774726390839,
              35.202314257621765
            ],
            [
              32.8537318110466,
              35.241198241710663
            ],
            [
              32.8537318110466,
              35.244140625
            ],
            [
              32.87109375,
              35.244140625
            ],
            [
              32.87109375,
              35.425495505332947
            ],
            [
              32.90879487991333,
              35.425640344619751
            ],
            [
              32.910956740379333,
              35.425640344619751
            ],
            [
              32.911892831325531,
              35.425651073455811
            ],
            [
              32.923396825790405,
              35.425683259963989
            ],
            [
              32.924373149871826,
              35.425693988800049
            ],
            [
              32.927573025226593,
              35.425696671009064
            ],
            [
              32.927573025226593,
              35.425704717636108
            ],
            [
              32.958984375,
              35.425801277160645
            ],
            [
              32.958984375,
              35.419921875
            ],
            [
              33.000660538673401,
              35.419921875
            ],
            [
              32.999688237905502,
              35.404184013605118
            ],
            [
              33.00011470913887,
              35.399817377328873
            ],
            [
              32.999371737241745,
              35.395303219556808
            ],
            [
              33.000647127628326,
              35.37935882806778
            ],
            [
              33.000647127628326,
              35.3759765625
            ],
            [
              32.997244745492935,
              35.367199033498764
            ],
            [
              32.997850924730301,
              35.362212806940079
            ],
            [
              32.996837049722672,
              35.350116044282913
            ],
            [
              32.99686387181282,
              35.346728414297104
            ],
            [
              33.000342696905136,
              35.336560159921646
            ],
            [
              32.999639958143234,
              35.333631187677383
            ],
            [
              33.000628352165222,
              35.33203125
            ],
            [
              32.999760657548904,
              35.331426411867142
            ],
            [
              32.998593896627426,
              35.327826887369156
            ],
            [
              32.99963191151619,
              35.315429717302322
            ],
            [
              32.99811378121376,
              35.31449630856514
            ],
            [
              32.997842878103256,
              35.313265174627304
            ],
            [
              32.998647540807724,
              35.29689833521843
            ],
            [
              33.000577390193939,
              35.2880859375
            ],
            [
              32.998277395963669,
              35.28265044093132
            ],
            [
              32.997928708791733,
              35.275462120771408
            ],
            [
              32.999154478311539,
              35.270475894212723
            ],
            [
              32.998505383729935,
              35.258105546236038
            ],
            [
              32.99762561917305,
              35.255973190069199
            ],
            [
              33.00010934472084,
              35.249307900667191
            ],
            [
              33.000496923923492,
              35.244140625
            ],
            [
              32.99825057387352,
              35.242704302072525
            ],
            [
              32.998961359262466,
              35.234526246786118
            ],
            [
              32.997727543115616,
              35.230556577444077
            ],
            [
              32.99873873591423,
              35.222480446100235
            ],
            [
              32.997912615537643,
              35.213291198015213
            ],
            [
              32.999674826860428,
              35.211319774389267
            ],
            [
              33.000443279743195,
              35.2001953125
            ],
            [
              32.998336404561996,
              35.191535800695419
            ],
            [
              32.998062819242477,
              35.185806602239609
            ],
            [
              32.997083812952042,
              35.184017568826675
            ],
            [
              32.997596114873886,
              35.17678365111351
            ],
            [
              32.998666316270828,
              35.174474269151688
            ],
            [
              32.998730689287186,
              35.168774574995041
            ],
            [
              33.000181764364243,
              35.166593939065933
            ],
            [
              32.999859899282455,
              35.162283629179001
            ],
            [
              32.998317629098892,
              35.158356875181198
            ],
            [
              33.000384271144867,
              35.15625
            ],
            [
              32.998601943254471,
              35.155293792486191
            ],
            [
              33.000034242868423,
              35.152549892663956
            ],
            [
              32.998593896627426,
              35.149969607591629
            ],
            [
              32.999414652585983,
              35.14731153845787
            ],
            [
              32.998357862234116,
              35.134276002645493
            ],
            [
              33.000192493200302,
              35.132269710302353
            ],
            [
              33.000313192605972,
              35.129555314779282
            ],
            [
              32.998105734586716,
              35.125891417264938
            ],
            [
              32.998803108930588,
              35.119075924158096
            ],
            [
              32.99812451004982,
              35.117552429437637
            ],
            [
              32.999629229307175,
              35.115336924791336
            ],
            [
              33.00030916929245,
              35.1123046875
            ],
            [
              33.000285029411316,
              35.097013413906097
            ],
            [
              33.0029296875,
              35.097000002861023
            ],
            [
              33.003191202878952,
              35.097961574792862
            ],
            [
              33.005457669496536,
              35.098666995763779
            ],
            [
              33.00785019993782,
              35.09725347161293
            ],
            [
              33.01409974694252,
              35.098361223936081
            ],
            [
              33.016194552183151,
              35.098224431276321
            ],
            [
              33.01734521985054,
              35.097014755010605
            ],
            [
              33.02096888422966,
              35.098001807928085
            ],
            [
              33.023256808519363,
              35.096945017576218
            ],
            [
              33.03131952881813,
              35.097776502370834
            ],
            [
              33.036242723464966,
              35.096774697303772
            ],
            [
              33.037970066070557,
              35.096777379512787
            ],
            [
              33.042136877775192,
              35.097800642251968
            ],
            [
              33.046875,
              35.096758604049683
            ],
            [
              33.049252778291702,
              35.098084956407547
            ],
            [
              33.055537194013596,
              35.099222213029861
            ],
            [
              33.058020919561386,
              35.098237842321396
            ],
            [
              33.060719221830368,
              35.098581165075302
            ],
            [
              33.062127381563187,
              35.09927049279213
            ],
            [
              33.062977641820908,
              35.100869089365005
            ],
            [
              33.066105097532272,
              35.101172178983688
            ],
            [
              33.067762702703476,
              35.099793523550034
            ],
            [
              33.07053878903389,
              35.099061280488968
            ],
            [
              33.075482100248337,
              35.100217312574387
            ],
            [
              33.076895624399185,
              35.099949091672897
            ],
            [
              33.077568858861923,
              35.098548978567123
            ],
            [
              33.083078116178513,
              35.098275393247604
            ],
            [
              33.08476522564888,
              35.099112242460251
            ],
            [
              33.0908203125,
              35.096517205238342
            ],
            [
              33.09250071644783,
              35.098742097616196
            ],
            [
              33.096711784601212,
              35.100815445184708
            ],
            [
              33.101317137479782,
              35.100222676992416
            ],
            [
              33.101526349782944,
              35.099503844976425
            ],
            [
              33.105474561452866,
              35.097974985837936
            ],
            [
              33.110948950052261,
              35.099648684263229
            ],
            [
              33.115766197443008,
              35.098894983530045
            ],
            [
              33.119659423828125,
              35.101296901702881
            ],
            [
              33.123539239168167,
              35.101424306631088
            ],
            [
              33.125947862863541,
              35.101094394922256
            ],
            [
              33.128858059644699,
              35.099179297685623
            ],
            [
              33.129289895296097,
              35.097958892583847
            ],
            [
              33.134765625,
              35.096206068992615
            ],
            [
              33.138637393712997,
              35.096521228551865
            ],
            [
              33.139621764421463,
              35.099021047353745
            ],
            [
              33.145240992307663,
              35.098221749067307
            ],
            [
              33.146517723798752,
              35.097116678953171
            ],
            [
              33.147877603769302,
              35.097604840993881
            ],
            [
              33.149291127920151,
              35.096902102231979
            ],
            [
              33.149316608905792,
              35.096128284931183
            ],
            [
              33.149481564760208,
              35.096655339002609
            ],
            [
              33.149358183145523,
              35.09789451956749
            ],
            [
              33.150380104780197,
              35.098744779825211
            ],
            [
              33.155364990234375,
              35.099709033966064
            ],
            [
              33.157587200403214,
              35.099474340677261
            ],
            [
              33.160156756639481,
              35.097682625055313
            ],
            [
              33.166146129369736,
              35.097996443510056
            ],
            [
              33.166746944189072,
              35.096883326768875
            ],
            [
              33.17010372877121,
              35.096004903316498
            ],
            [
              33.172234743833542,
              35.1036237180233
            ],
            [
              33.178051114082336,
              35.1123046875
            ],
            [
              33.176486045122147,
              35.113078504800797
            ],
            [
              33.176067620515823,
              35.114714652299881
            ],
            [
              33.174603134393692,
              35.133940726518631
            ],
            [
              33.174941092729568,
              35.140420943498611
            ],
            [
              33.177296072244644,
              35.146893113851547
            ],
            [
              33.178094029426575,
              35.15625
            ],
            [
              33.177336305379868,
              35.15631303191185
            ],
            [
              33.176837414503098,
              35.161183923482895
            ],
            [
              33.17565456032753,
              35.163479894399643
            ],
            [
              33.175321966409683,
              35.173275321722031
            ],
            [
              33.177558928728104,
              35.181254893541336
            ],
            [
              33.177867382764816,
              35.205512791872025
            ],
            [
              33.174828439950943,
              35.214466005563736
            ],
            [
              33.175520449876785,
              35.220664590597153
            ],
            [
              33.175185173749924,
              35.231192260980606
            ],
            [
              33.176628202199936,
              35.240523666143417
            ],
            [
              33.1780806183815,
              35.244140625
            ],
            [
              33.177422136068344,
              35.247419625520706
            ],
            [
              33.178030997514725,
              35.253108590841293
            ],
            [
              33.177545517683029,
              35.260975509881973
            ],
            [
              33.176330476999283,
              35.263180285692215
            ],
            [
              33.176191002130508,
              35.266149491071701
            ],
            [
              33.177234381437302,
              35.270044058561325
            ],
            [
              33.176461905241013,
              35.272348076105118
            ],
            [
              33.176700621843338,
              35.283578485250473
            ],
            [
              33.178010880947113,
              35.2880859375
            ],
            [
              33.176620155572891,
              35.298800021409988
            ],
            [
              33.177831172943115,
              35.305206477642059
            ],
            [
              33.180444985628128,
              35.303491204977036
            ],
            [
              33.185589462518692,
              35.30239149928093
            ],
            [
              33.187984675168991,
              35.302560478448868
            ],
            [
              33.189830034971237,
              35.304191261529922
            ],
            [
              33.195236027240753,
              35.305195748806
            ],
            [
              33.198976367712021,
              35.304456800222397
            ],
            [
              33.20343017578125,
              35.305187702178955
            ],
            [
              33.210155814886093,
              35.304958373308182
            ],
            [
              33.215793818235397,
              35.303512662649155
            ],
            [
              33.2171630859375,
              35.303986072540283
            ],
            [
              33.220914155244827,
              35.304480940103531
            ],
            [
              33.22265625,
              35.306842625141144
            ],
            [
              33.22745606303215,
              35.30450776219368
            ],
            [
              33.232847303152084,
              35.304526537656784
            ],
            [
              33.241568505764008,
              35.307961106300354
            ],
            [
              33.268614560365677,
              35.309976786375046
            ],
            [
              33.273772448301315,
              35.308973640203476
            ],
            [
              33.280376046895981,
              35.308887809514999
            ],
            [
              33.283409625291824,
              35.310770720243454
            ],
            [
              33.285980522632599,
              35.31117707490921
            ],
            [
              33.290372639894485,
              35.310357660055161
            ],
            [
              33.292188495397568,
              35.311307162046432
            ],
            [
              33.296817988157272,
              35.310894101858139
            ],
            [
              33.302997797727585,
              35.311655849218369
            ],
            [
              33.303748816251755,
              35.312353223562241
            ],
            [
              33.307128399610519,
              35.311441272497177
            ],
            [
              33.310546875,
              35.312974154949188
            ],
            [
              33.313128501176834,
              35.312208384275436
            ],
            [
              33.313332349061966,
              35.311537832021713
            ],
            [
              33.319498747587204,
              35.31099334359169
            ],
            [
              33.324058502912521,
              35.312581211328506
            ],
            [
              33.328210562467575,
              35.312608033418655
            ],
            [
              33.331241458654404,
              35.311816781759262
            ],
            [
              33.33245649933815,
              35.310427397489548
            ],
            [
              33.336192816495895,
              35.310462266206741
            ],
            [
              33.342133909463882,
              35.311452001333237
            ],
            [
              33.34495022892952,
              35.315199047327042
            ],
            [
              33.350129574537277,
              35.315148085355759
            ],
            [
              33.3544921875,
              35.316190123558044
            ],
            [
              33.356816321611404,
              35.315901786088943
            ],
            [
              33.358259350061417,
              35.314426571130753
            ],
            [
              33.361773043870926,
              35.3136245906353
            ],
            [
              33.36853489279747,
              35.313485115766525
            ],
            [
              33.370112031698227,
              35.312540978193283
            ],
            [
              33.373966366052628,
              35.313324183225632
            ],
            [
              33.377839475870132,
              35.31261071562767
            ],
            [
              33.382552117109299,
              35.314013510942459
            ],
            [
              33.388157933950424,
              35.314313918352127
            ],
            [
              33.390807956457138,
              35.316768139600754
            ],
            [
              33.395155817270279,
              35.318299680948257
            ],
            [
              33.397314995527267,
              35.318149477243423
            ],
            [
              33.3984375,
              35.31904399394989
            ],
            [
              33.3984375,
              35.318770408630371
            ],
            [
              33.39776024222374,
              35.318106561899185
            ],
            [
              33.3984375,
              35.313534736633301
            ],
            [
              33.3984375,
              35.313006341457367
            ],
            [
              33.4039306640625,
              35.312585234642029
            ],
            [
              33.404259234666824,
              35.311983078718185
            ],
            [
              33.405303955078125,
              35.312467217445374
            ],
            [
              33.406289666891098,
              35.311698764562607
            ],
            [
              33.40667724609375,
              35.312338471412659
            ],
            [
              33.427552878856659,
              35.310731828212738
            ],
            [
              33.4423828125,
              35.309546291828156
            ],
            [
              33.443234413862228,
              35.307718366384506
            ],
            [
              33.451570719480515,
              35.305958837270737
            ],
            [
              33.454145640134811,
              35.306095629930496
            ],
            [
              33.457876592874527,
              35.304180532693863
            ],
            [
              33.460518568754196,
              35.304142981767654
            ],
            [
              33.465190976858139,
              35.305586010217667
            ],
            [
              33.470126241445541,
              35.303984731435776
            ],
            [
              33.47553625702858,
              35.303861349821091
            ],
            [
              33.478926569223404,
              35.304813534021378
            ],
            [
              33.482225686311722,
              35.304448753595352
            ],
            [
              33.486328125,
              35.305836796760559
            ],
            [
              33.487493544816971,
              35.300141125917435
            ],
            [
              33.489947766065598,
              35.299105793237686
            ],
            [
              33.490806072950363,
              35.295616239309311
            ],
            [
              33.492959886789322,
              35.294583588838577
            ],
            [
              33.494638949632645,
              35.291378349065781
            ],
            [
              33.511536866426468,
              35.288089960813522
            ],
            [
              33.507934659719467,
              35.283369272947311
            ],
            [
              33.505461663007736,
              35.274952501058578
            ],
            [
              33.506926149129868,
              35.268879979848862
            ],
            [
              33.5099758207798,
              35.267729312181473
            ],
            [
              33.511274009943008,
              35.266385525465012
            ],
            [
              33.511501997709274,
              35.263837426900864
            ],
            [
              33.513960242271423,
              35.259807407855988
            ],
            [
              33.51085290312767,
              35.252588242292404
            ],
            [
              33.511303514242172,
              35.249704867601395
            ],
            [
              33.513108640909195,
              35.248165279626846
            ],
            [
              33.514644205570221,
              35.244140625
            ],
            [
              33.512666076421738,
              35.240073055028915
            ],
            [
              33.513272255659103,
              35.238369852304459
            ],
            [
              33.512046486139297,
              35.237809270620346
            ],
            [
              33.51471796631813,
              35.233155637979507
            ],
            [
              33.514401465654373,
              35.230561941862106
            ],
            [
              33.513076454401016,
              35.22822842001915
            ],
            [
              33.51397767663002,
              35.22360697388649
            ],
            [
              33.514840006828308,
              35.222999453544617
            ],
            [
              33.513815402984619,
              35.220794677734375
            ],
            [
              33.514894992113113,
              35.215428918600082
            ],
            [
              33.514776974916458,
              35.206596404314041
            ],
            [
              33.514412194490433,
              35.205177515745163
            ],
            [
              33.512808233499527,
              35.203873962163925
            ],
            [
              33.514996916055679,
              35.200183242559433
            ],
            [
              33.511523455381393,
              35.199821144342422
            ],
            [
              33.510340601205826,
              35.197262316942215
            ],
            [
              33.507551103830338,
              35.195706635713577
            ],
            [
              33.507446497678757,
              35.191449970006943
            ],
            [
              33.504171520471573,
              35.190945714712143
            ],
            [
              33.503007441759109,
              35.189832597970963
            ],
            [
              33.501886278390884,
              35.180144459009171
            ],
            [
              33.499394506216049,
              35.179133266210556
            ],
            [
              33.499399870634079,
              35.177266448736191
            ],
            [
              33.497982323169708,
              35.174663364887238
            ],
            [
              33.497318476438522,
              35.16978845000267
            ],
            [
              33.497974276542664,
              35.15625
            ],
            [
              33.497315794229507,
              35.153909772634506
            ],
            [
              33.495183438062668,
              35.151337534189224
            ],
            [
              33.495419472455978,
              35.146254748106003
            ],
            [
              33.497356027364731,
              35.144111663103104
            ],
            [
              33.497315794229507,
              35.142537206411362
            ],
            [
              33.494461923837662,
              35.138503164052963
            ],
            [
              33.494410961866379,
              35.136354714632034
            ],
            [
              33.49312350153923,
              35.134305506944656
            ],
            [
              33.491785079240799,
              35.128646045923233
            ],
            [
              33.493303209543228,
              35.120540410280228
            ],
            [
              33.495239764451981,
              35.119016915559769
            ],
            [
              33.495510667562485,
              35.113687366247177
            ],
            [
              33.495899587869644,
              35.112762004137039
            ],
            [
              33.498006463050842,
              35.1123046875
            ],
            [
              33.496605008840561,
              35.110930055379868
            ],
            [
              33.495851308107376,
              35.108204931020737
            ],
            [
              33.493945598602295,
              35.105438232421875
            ],
            [
              33.492447584867477,
              35.098063498735428
            ],
            [
              33.493716269731522,
              35.09138211607933
            ],
            [
              33.494169563055038,
              35.082238465547562
            ],
            [
              33.495615273714066,
              35.07778063416481
            ],
            [
              33.496084660291672,
              35.070122927427292
            ],
            [
              33.498046696186066,
              35.068359375
            ],
            [
              33.4940005838871,
              35.067762583494186
            ],
            [
              33.493387699127197,
              35.066986083984375
            ],
            [
              33.49449411034584,
              35.059107095003128
            ],
            [
              33.494024723768234,
              35.042289644479752
            ],
            [
              33.495690375566483,
              35.037126392126083
            ],
            [
              33.495907634496689,
              35.033041387796402
            ],
            [
              33.496698886156082,
              35.032166987657547
            ],
            [
              33.496025651693344,
              35.030809789896011
            ],
            [
              33.496728390455246,
              35.029763728380203
            ],
            [
              33.496567457914352,
              35.0269715487957
            ],
            [
              33.498041331768036,
              35.0244140625
            ],
            [
              33.494681864976883,
              35.022210627794266
            ],
            [
              33.495505303144455,
              35.017685741186142
            ],
            [
              33.493246883153915,
              35.015352219343185
            ],
            [
              33.491980880498886,
              35.0051249563694
            ],
            [
              33.489097505807877,
              35.001074820756912
            ],
            [
              33.488923162221909,
              34.998542815446854
            ],
            [
              33.487114012241364,
              34.99545156955719
            ],
            [
              33.486328125,
              34.995481073856354
            ],
            [
              33.48726287484169,
              34.99487891793251
            ],
            [
              33.4880031645298,
              34.990852922201157
            ],
            [
              33.487732261419296,
              34.989439398050308
            ],
            [
              33.486328125,
              34.988150596618652
            ],
            [
              33.48538801074028,
              34.984072297811508
            ],
            [
              33.486328125,
              34.981799125671387
            ],
            [
              33.486328125,
              34.98046875
            ],
            [
              33.486285209655762,
              34.98046875
            ],
            [
              33.484982997179031,
              34.981717318296432
            ],
            [
              33.482013791799545,
              34.982162564992905
            ],
            [
              33.473969846963882,
              34.981022626161575
            ],
            [
              33.471341282129288,
              34.983144253492355
            ],
            [
              33.464388996362686,
              34.983240813016891
            ],
            [
              33.463485091924667,
              34.984066933393478
            ],
            [
              33.460754603147507,
              34.981011897325516
            ],
            [
              33.458819389343262,
              34.98046875
            ],
            [
              33.44944640994072,
              34.979212135076523
            ],
            [
              33.445753008127213,
              34.979834407567978
            ],
            [
              33.444596976041794,
              34.979153126478195
            ],
            [
              33.44238817691803,
              34.98046875
            ],
            [
              33.44237744808197,
              34.98046875
            ],
            [
              33.440316170454025,
              34.979378432035446
            ],
            [
              33.436417579650879,
              34.98046875
            ],
            [
              33.429517596960068,
              34.982020407915115
            ],
            [
              33.428176492452621,
              34.981717318296432
            ],
            [
              33.427970819492735,
              34.98046875
            ],
            [
              33.427960574626923,
              34.98046875
            ],
            [
              33.42601865530014,
              34.98046875
            ],
            [
              33.427194803953171,
              34.975435584783554
            ],
            [
              33.428560048341751,
              34.974467307329178
            ],
            [
              33.428999930620193,
              34.970095306634903
            ],
            [
              33.428562730550766,
              34.967026859521866
            ],
            [
              33.426977545022964,
              34.965766221284866
            ],
            [
              33.426564484834671,
              34.962660223245621
            ],
            [
              33.426889032125473,
              34.957354813814163
            ],
            [
              33.426306992769241,
              34.955962747335434
            ],
            [
              33.427044600248337,
              34.952317625284195
            ],
            [
              33.42596098780632,
              34.946703761816025
            ],
            [
              33.42553049325943,
              34.9365234375
            ],
            [
              33.427471071481705,
              34.924009591341019
            ],
            [
              33.426757603883743,
              34.920388609170914
            ],
            [
              33.427559584379196,
              34.914423376321793
            ],
            [
              33.426661044359207,
              34.91123154759407
            ],
            [
              33.427020460367203,
              34.905644506216049
            ],
            [
              33.425687402486801,
              34.898826330900192
            ],
            [
              33.426599353551865,
              34.895452111959457
            ],
            [
              33.425246179103851,
              34.892578125
            ],
            [
              33.425470143556595,
              34.887971431016922
            ],
            [
              33.426787108182907,
              34.887491315603256
            ],
            [
              33.427650779485703,
              34.88602414727211
            ],
            [
              33.428927510976791,
              34.88053098320961
            ],
            [
              33.427919000387192,
              34.866371601819992
            ],
            [
              33.426821976900101,
              34.863734990358353
            ],
            [
              33.426738828420639,
              34.852110296487808
            ],
            [
              33.42734232544899,
              34.849994033575058
            ],
            [
              33.425833582878113,
              34.8486328125
            ],
            [
              33.426521569490433,
              34.841939359903336
            ],
            [
              33.425944894552231,
              34.838433712720871
            ],
            [
              33.42722162604332,
              34.836765378713608
            ],
            [
              33.427229672670364,
              34.835370630025864
            ],
            [
              33.425922095775604,
              34.832815825939178
            ],
            [
              33.424660116434097,
              34.832004457712173
            ],
            [
              33.416626900434494,
              34.830655306577682
            ],
            [
              33.407823890447617,
              34.832178801298141
            ],
            [
              33.404017835855484,
              34.830236881971359
            ],
            [
              33.399852365255356,
              34.831325858831406
            ],
            [
              33.3984375,
              34.832802414894104
            ],
            [
              33.397022634744644,
              34.831725507974625
            ],
            [
              33.387699276208878,
              34.8304782807827
            ],
            [
              33.384531587362289,
              34.829225689172745
            ],
            [
              33.377700001001358,
              34.828815311193466
            ],
            [
              33.373671323060989,
              34.826074093580246
            ],
            [
              33.368467837572098,
              34.827388375997543
            ],
            [
              33.364366739988327,
              34.829593151807785
            ],
            [
              33.358197659254074,
              34.830625802278519
            ],
            [
              33.3544921875,
              34.832799732685089
            ],
            [
              33.340784758329391,
              34.832071512937546
            ],
            [
              33.337458819150925,
              34.82921227812767
            ],
            [
              33.334948271512985,
              34.829813092947006
            ],
            [
              33.333513289690018,
              34.831183701753616
            ],
            [
              33.328186422586441,
              34.831679910421371
            ],
            [
              33.326649516820908,
              34.832712560892105
            ],
            [
              33.322505503892899,
              34.832074195146561
            ],
            [
              33.317913562059402,
              34.832768887281418
            ],
            [
              33.313249200582504,
              34.831741601228714
            ],
            [
              33.310546875,
              34.832799732685089
            ],
            [
              33.310204893350601,
              34.831846207380295
            ],
            [
              33.304540067911148,
              34.831645041704178
            ],
            [
              33.302144855260849,
              34.83021005988121
            ],
            [
              33.299116641283035,
              34.832229763269424
            ],
            [
              33.292928785085678,
              34.832581132650375
            ],
            [
              33.289938122034073,
              34.830223470926285
            ],
            [
              33.287210315465927,
              34.829684346914291
            ],
            [
              33.281819075345993,
              34.829786270856857
            ],
            [
              33.280182927846909,
              34.830539971590042
            ],
            [
              33.274528831243515,
              34.830075949430466
            ],
            [
              33.271763473749161,
              34.831937402486801
            ],
            [
              33.267391473054886,
              34.832036644220352
            ],
            [
              33.2666015625,
              34.832762181758881
            ],
            [
              33.255632668733597,
              34.832028597593307
            ],
            [
              33.252974599599838,
              34.830070585012436
            ],
            [
              33.249152451753616,
              34.829754084348679
            ],
            [
              33.24175626039505,
              34.832732677459717
            ],
            [
              33.236884027719498,
              34.831355363130569
            ],
            [
              33.231423050165176,
              34.83108177781105
            ],
            [
              33.226776123046875,
              34.832689762115479
            ],
            [
              33.22265625,
              34.832727313041687
            ],
            [
              33.219830542802811,
              34.831687957048416
            ],
            [
              33.217204660177231,
              34.831907898187637
            ],
            [
              33.208793252706528,
              34.830430001020432
            ],
            [
              33.198110014200211,
              34.832173436880112
            ],
            [
              33.185490220785141,
              34.830883294343948
            ],
            [
              33.183969408273697,
              34.831945449113846
            ],
            [
              33.1787109375,
              34.832713901996613
            ],
            [
              33.175169080495834,
              34.831285625696182
            ],
            [
              33.168927580118179,
              34.831961542367935
            ],
            [
              33.163007944822311,
              34.830223470926285
            ],
            [
              33.160089701414108,
              34.829998165369034
            ],
            [
              33.157740086317062,
              34.830770641565323
            ],
            [
              33.146702796220779,
              34.829408079385757
            ],
            [
              33.139903396368027,
              34.829944521188736
            ],
            [
              33.136032968759537,
              34.831368774175644
            ],
            [
              33.134765625,
              34.832716584205627
            ],
            [
              33.133522421121597,
              34.819655567407608
            ],
            [
              33.132715076208115,
              34.818121343851089
            ],
            [
              33.12982901930809,
              34.816072136163712
            ],
            [
              33.129638582468033,
              34.813006371259689
            ],
            [
              33.12822237610817,
              34.809852093458176
            ],
            [
              33.126264363527298,
              34.808387607336044
            ],
            [
              33.12533363699913,
              34.806035310029984
            ],
            [
              33.122722506523132,
              34.8046875
            ],
            [
              33.123786002397537,
              34.803023189306259
            ],
            [
              33.12397375702858,
              34.799174219369888
            ],
            [
              33.125430196523666,
              34.798160344362259
            ],
            [
              33.125982731580734,
              34.796414226293564
            ],
            [
              33.126020282506943,
              34.791213423013687
            ],
            [
              33.124459236860275,
              34.785669296979904
            ],
            [
              33.124142736196518,
              34.777721911668777
            ],
            [
              33.122658133506775,
              34.771334230899811
            ],
            [
              33.122420758008957,
              34.770632833242416
            ],
            [
              33.11921015381813,
              34.769825488328934
            ],
            [
              33.116924911737442,
              34.769769161939621
            ],
            [
              33.116306662559509,
              34.770701229572296
            ],
            [
              33.110399097204208,
              34.769836217164993
            ],
            [
              33.101806640625,
              34.769928753376007
            ],
            [
              33.090777397155762,
              34.768582284450531
            ],
            [
              33.086351752281189,
              34.767265319824219
            ],
            [
              33.084293156862259,
              34.764718562364578
            ],
            [
              33.08126226067543,
              34.763331860303879
            ],
            [
              33.080591708421707,
              34.761966615915298
            ],
            [
              33.077753931283951,
              34.76218119263649
            ],
            [
              33.074701577425003,
              34.76129338145256
            ],
            [
              33.068612962961197,
              34.762025624513626
            ],
            [
              33.063463121652603,
              34.763608127832413
            ],
            [
              33.060947209596634,
              34.763441830873489
            ],
            [
              33.059429079294205,
              34.764541536569595
            ],
            [
              33.053265362977982,
              34.762634485960007
            ],
            [
              33.048979192972183,
              34.762363582849503
            ],
            [
              33.046875,
              34.76335734128952
            ],
            [
              33.045794069766998,
              34.763204455375671
            ],
            [
              33.034674972295761,
              34.761862009763718
            ],
            [
              33.032432645559311,
              34.762398451566696
            ],
            [
              33.02595779299736,
              34.760990291833878
            ],
            [
              33.014574497938156,
              34.761245101690292
            ]
          ],
          [
            [
              33.312318474054337,
              35.166390091180801
            ],
            [
              33.311016261577606,
              35.169481337070465
            ],
            [
              33.310546875,
              35.16947329044342
            ],
            [
              33.310546875,
              35.169081687927246
            ],
            [
              33.309314399957657,
              35.160749405622482
            ],
            [
              33.310546875,
              35.156636238098145
            ],
            [
              33.310546875,
              35.15625
            ],
            [
              33.311013579368591,
              35.15625
            ],
            [
              33.311562091112137,
              35.156975537538528
            ],
            [
              33.311124891042709,
              35.161956399679184
            ],
            [
              33.312396258115768,
              35.164024382829666
            ],
            [
              33.312318474054337,
              35.166390091180801
            ]
          ]
        ]
      }
    }
  ]
}
